JY1SAT (JO-97)          
1 43803U 18099AX  26068.68634132  .00017774  00000+0  60804-3 0  9996
2 43803  97.4249 131.3625 0004723 256.6795 103.3919 15.30302628398390
STARLINK-36080          
1 66801U 25278L   26068.55309670  .00020570  00000+0  75479-3 0  9990
2 66801  43.0031 115.5345 0002022 263.5318  96.5303 15.27585483 15181
